H1 CPF 01  gfz 2022 08 27 12  7392 terrasarx 
H2 0702601  6201 31698    2022 08 27 12 59 42 2022 09 01 00 00 42   120 1 1  0 0 0
H9
10 0 59820  39582.000000  0     -45747.719  -2902049.230  -6254278.340
10 0 59820  39702.000000  0    -330985.861  -2085619.462  -6563723.957
10 0 59820  39822.000000  0    -595841.992  -1228245.450  -6758649.198
10 0 59820  39942.000000  0    -835148.947   -345191.127  -6835702.098
10 0 59820  40062.000000  0   -1044453.646    547765.335  -6793559.608
10 0 59820  40182.000000  0   -1220097.606   1434606.253  -6632946.841
10 0 59820  40302.000000  0   -1359279.454   2299354.462  -6356625.767
10 0 59820  40422.000000  0   -1460098.773   3126354.041  -5969353.733
10 0 59820  40542.000000  0   -1521581.470   3900550.678  -5477811.087
10 0 59820  40662.000000  0   -1543685.143   4607764.965  -4890496.680
10 0 59820  40782.000000  0   -1527285.215   5234955.983  -4217592.632
10 0 59820  40902.000000  0   -1474141.261   5770468.796  -3470797.207
10 0 59820  41022.000000  0   -1386843.486   6204259.710  -2663129.042
10 0 59820  41142.000000  0   -1268740.887   6528095.846  -1808705.950
10 0 59820  41262.000000  0   -1123852.134   6735723.541   -922499.053
10 0 59820  41382.000000  0    -956761.213   6822999.521    -20068.869
10 0 59820  41502.000000  0    -772499.791   6787983.651    882713.239
10 0 59820  41622.000000  0    -576419.379   6630987.174   1769954.042
10 0 59820  41742.000000  0    -374056.810   6354572.492   2626028.760
10 0 59820  41862.000000  0    -170996.748   5963507.399   3435863.307
10 0 59820  41982.000000  0      27265.128   5464677.527   4185204.770
10 0 59820  42102.000000  0     215455.069   4866959.260   4860878.575
10 0 59820  42222.000000  0     388648.383   4181047.022   5451022.500
10 0 59820  42342.000000  0     542386.123   3419252.864   5945288.898
10 0 59820  42462.000000  0     672779.119   2595277.989   6335023.558
10 0 59820  42582.000000  0     776596.698   1723959.185   6613411.076
10 0 59820  42702.000000  0     851339.466    820997.423   6775588.197
10 0 59820  42822.000000  0     895294.480    -97326.852   6818722.743
10 0 59820  42942.000000  0     907571.991  -1014445.895   6742060.472
10 0 59820  43062.000000  0     888122.977  -1913803.464   6546938.443
10 0 59820  43182.000000  0     837737.237  -2779153.449   6236763.612
10 0 59820  43302.000000  0     758021.953  -3594855.299   5816956.929
10 0 59820  43422.000000  0     651360.908  -4346158.322   5294861.663
10 0 59820  43542.000000  0     520856.797  -5019471.111   4679621.310
10 0 59820  43662.000000  0     370256.434  -5602614.476   3982026.803
10 0 59820  43782.000000  0     203859.261  -6085052.345   3214331.311
10 0 59820  43902.000000  0      26411.659  -6458092.756   2390035.952
10 0 59820  44022.000000  0    -157010.635  -6715053.690   1523650.201
10 0 59820  44142.000000  0    -341128.874  -6851391.739    630433.326
10 0 59820  44262.000000  0    -520593.949  -6864789.705   -273882.835
10 0 59820  44382.000000  0    -690121.319  -6755196.777  -1173381.137
10 0 59820  44502.000000  0    -844624.098  -6524822.268  -2052248.112
10 0 59820  44622.000000  0    -979341.561  -6178085.191  -2895058.668
10 0 59820  44742.000000  0   -1089960.245  -5721520.769  -3687052.164
10 0 59820  44862.000000  0   -1172724.288  -5163645.369  -4414393.412
10 0 59820  44982.000000  0   -1224532.063  -4514784.389  -5064411.993
10 0 59820  45102.000000  0   -1243017.463  -3786869.724  -5625816.569
10 0 59820  45222.000000  0   -1226614.050  -2993211.342  -6088882.268
10 0 59820  45342.000000  0   -1174601.007  -2148247.581  -6445608.810
10 0 59820  45462.000000  0   -1087130.436  -1267279.547  -6689847.007
10 0 59820  45582.000000  0    -965236.080   -366195.551  -6817394.064
10 0 59820  45702.000000  0    -810823.034    538811.227  -6826057.886
10 0 59820  45822.000000  0    -626637.963   1431526.619  -6715689.694
10 0 59820  45942.000000  0    -416221.607   2295998.270  -6488186.214
10 0 59820  46062.000000  0    -183843.953   3116813.716  -6147461.552
10 0 59820  46182.000000  0      65578.591   3879371.985  -5699388.380
10 0 59820  46302.000000  0     326582.191   4570142.571  -5151705.990
10 0 59820  46422.000000  0     593268.438   5176908.058  -4513898.383
10 0 59820  46542.000000  0     859430.033   5688987.697  -3797041.095
10 0 59820  46662.000000  0    1118687.042   6097435.220  -3013617.624
10 0 59820  46782.000000  0    1364630.600   6395206.905  -2177308.572
10 0 59820  46902.000000  0    1590971.248   6577295.965  -1302755.389
10 0 59820  47022.000000  0    1791688.409   6640828.530   -405302.372
10 0 59820  47142.000000  0    1961176.870   6585117.103    499277.957
10 0 59820  47262.000000  0    2094385.873   6411670.231   1395069.033
10 0 59820  47382.000000  0    2186948.095   6124158.692   2266298.178
10 0 59820  47502.000000  0    2235294.922   5728338.267   3097622.278
10 0 59820  47622.000000  0    2236755.414   5231931.875   3874405.493
10 0 59820  47742.000000  0    2189635.322   4644472.759   4582983.474
10 0 59820  47862.000000  0    2093274.668   3977111.397   5210908.132
10 0 59820  47982.000000  0    1948082.152   3242392.453   5747163.511
10 0 59820  48102.000000  0    1755548.002   2454012.625   6182354.477
10 0 59820  48222.000000  0    1518233.667   1626559.491   6508867.248
10 0 59820  48342.000000  0    1239738.454    775236.381   6720996.544
10 0 59820  48462.000000  0     924644.449    -84418.660   6815038.031
10 0 59820  48582.000000  0     578441.008   -936814.913   6789349.683
10 0 59820  48702.000000  0     207428.905  -1766591.991   6644379.922
10 0 59820  48822.000000  0    -181394.509  -2558896.509   6382660.090
10 0 59820  48942.000000  0    -580466.843  -3299649.015   6008762.296
10 0 59820  49062.000000  0    -981805.359  -3975794.856   5529222.036
10 0 59820  49182.000000  0   -1377163.456  -4575535.994   4952430.939
10 0 59820  49302.000000  0   -1758198.836  -5088543.576   4288498.731
10 0 59820  49422.000000  0   -2116648.803  -5506145.818   3549081.221
10 0 59820  49542.000000  0   -2444508.339  -5821483.980   2747176.666
10 0 59820  49662.000000  0   -2734206.483  -6029632.137   1896896.082
10 0 59820  49782.000000  0   -2978776.933  -6127680.013   1013211.541
10 0 59820  49902.000000  0   -3172018.831  -6114776.118    111686.412
10 0 59820  50022.000000  0   -3308643.457  -5992129.476   -791806.678
10 0 59820  50142.000000  0   -3384403.213  -5762969.679  -1681374.413
10 0 59820  50262.000000  0   -3396199.505  -5432465.718  -2541391.000
10 0 59820  50382.000000  0   -3342166.846  -5007606.232  -3356779.561
10 0 59820  50502.000000  0   -3221730.580  -4497044.405  -4113280.139
10 0 59820  50622.000000  0   -3035637.525  -3910913.185  -4797698.135
10 0 59820  50742.000000  0   -2785960.085  -3260616.248  -5398129.848
10 0 59820  50862.000000  0   -2476074.365  -2558599.350  -5904161.745
10 0 59820  50982.000000  0   -2110612.777  -1818107.765  -6307041.328
10 0 59820  51102.000000  0   -1695391.607  -1052934.323  -6599817.814
10 0 59820  51222.000000  0   -1237316.378   -277163.289  -6777450.092
10 0 59820  51342.000000  0    -744267.650    495084.606  -6836883.085
10 0 59820  51462.000000  0    -224967.517   1249902.577  -6777094.617
10 0 59820  51582.000000  0     311170.799   1973841.641  -6599110.683
10 0 59820  51702.000000  0     854208.206   2654144.315  -6305991.584
10 0 59820  51822.000000  0    1393860.669   3278966.646  -5902785.953
10 0 59820  51942.000000  0    1919689.563   3837583.554  -5396451.819
10 0 59820  52062.000000  0    2421300.333   4320574.332  -4795747.674
10 0 59820  52182.000000  0    2888546.309   4719986.827  -4111092.594
10 0 59820  52302.000000  0    3311733.378   5029476.156  -3354395.218
10 0 59820  52422.000000  0    3681821.998   5244414.236  -2538854.588
10 0 59820  52542.000000  0    3990622.176   5361967.124  -1678733.692
10 0 59820  52662.000000  0    4230975.165   5381137.644   -789110.631
10 0 59820  52782.000000  0    4396917.985   5302772.445    114389.303
10 0 59820  52902.000000  0    4483826.236   5129530.660   1015874.723
10 0 59820  53022.000000  0    4488529.644   4865815.481   1899474.999
10 0 59820  53142.000000  0    4409400.416   4517673.229   2749627.200
10 0 59820  53262.000000  0    4246410.122   4092657.633   3551360.644
10 0 59820  53382.000000  0    4001151.457   3599664.139   4290566.749
10 0 59820  53502.000000  0    3676828.718   3048739.857   4954249.798
10 0 59820  53622.000000  0    3278215.945   2450874.807   5530758.296
10 0 59820  53742.000000  0    2811580.349   1817776.554   6009986.376
10 0 59820  53862.000000  0    2284579.864   1161637.459   6383545.203
10 0 59820  53982.000000  0    1706133.514    494896.848   6644903.592
10 0 59820  54102.000000  0    1086267.416   -169994.453   6789495.811
10 0 59820  54222.000000  0     435939.388   -820805.684   6814797.973
10 0 59820  54342.000000  0    -233155.403  -1445751.611   6720369.320
10 0 59820  54462.000000  0    -908794.839  -2033705.590   6507858.875
10 0 59820  54582.000000  0   -1578452.477  -2574397.710   6180977.002
10 0 59820  54702.000000  0   -2229527.210  -3058593.973   5745434.253
10 0 59820  54822.000000  0   -2849579.838  -3478256.596   5208849.745
10 0 59820  54942.000000  0   -3426574.608  -3826682.295   4580624.935
10 0 59820  55062.000000  0   -3949117.404  -4098613.399   3871782.684
10 0 59820  55182.000000  0   -4406684.535  -4290320.727   3094776.633
10 0 59820  55302.000000  0   -4789838.841  -4399656.815   2263274.047
10 0 59820  55422.000000  0   -5090429.192  -4426078.200   1391913.496
10 0 59820  55542.000000  0   -5301766.509  -4370634.038    496041.684
10 0 59820  55662.000000  0   -5418772.237  -4235922.142   -408564.084
10 0 59820  55782.000000  0   -5438095.341  -4026013.439  -1305982.708
10 0 59820  55902.000000  0   -5358194.057  -3746345.969  -2180439.579
10 0 59820  56022.000000  0   -5179379.421  -3403590.991  -3016591.557
99
